{"type": "FeatureCollection", "features": [ {"type": "Feature", "properties": {"norad_id": 66590, "name": "STARLINK-35429", "group": "last-30-days", "lat": -31.84402999165526, "lon": 114.55261651480691, "alt_km": 445.88091516299573, "timestamp": "2025-12-18T23:35:47.780581+00:00", "meta": {"OBJECT_NAME": "STARLINK-35429", "OBJECT_ID": "2025-270C", "EPOCH": "2025-12-18T16:00:00.999936", "MEAN_MOTION": 15.4067535, "ECCENTRICITY": 0.00016468, "INCLINATION": 42.9996, "RA_OF_ASC_NODE": 158.176, "ARG_OF_PERICENTER": 283.7413, "MEAN_ANOMALY": 67.9884, "EPHEMERIS_TYPE": 0, "CLASSIFICATION_TYPE": "U", "NORAD_CAT_ID": 66590, "ELEMENT_SET_NO": 999, "REV_AT_EPOCH": 546, "BSTAR": 0.0003547873, "MEAN_MOTION_DOT": 0.00014533, "MEAN_MOTION_DDOT": 0}, "tle": {"line1": "1 66590U 25270C   25352.66667824  .00014533  00000+0  35479-3 0  9990", "line2": "2 66590  42.9996 158.1760 0001646 283.7413  67.9884 15.40675350  5463"}}, "geometry": {"type": "Point", "coordinates": [114.55261651480691, -31.84402999165526]}}, {"type": "Feature", "properties": {"norad_id": 66591, "name": "STARLINK-36058", "group": "last-30-days", "lat": 4.230612207776243, "lon": 160.76250991693436, "alt_km": 413.75320306351296, "timestamp": "2025-12-18T23:35:47.780592+00:00", "meta": {"OBJECT_NAME": "STARLINK-36058", "OBJECT_ID": "2025-270D", "EPOCH": "2025-12-18T14:17:40.268544", "MEAN_MOTION": 15.50601952, "ECCENTRICITY": 0.00024679, "INCLINATION": 42.9989, "RA_OF_ASC_NODE": 158.4771, "ARG_OF_PERICENTER": 282.0011, "MEAN_ANOMALY": 78.0573, "EPHEMERIS_TYPE": 0, "CLASSIFICATION_TYPE": "U", "NORAD_CAT_ID": 66591, "ELEMENT_SET_NO": 999, "REV_AT_EPOCH": 525, "BSTAR": 0.0013344316, "MEAN_MOTION_DOT": 0.00078804, "MEAN_MOTION_DDOT": 0}, "tle": {"line1": "1 66591U 25270D   25352.59560496  .00078804  00000+0  13344-2 0  9997", "line2": "2 66591  42.9989 158.4771 0002467 282.0011  78.0573 15.50601952  5252"}}, "geometry": {"type": "Point", "coordinates": [160.76250991693436, 4.230612207776243]}}, {"type": "Feature", "properties": {"norad_id": 66592, "name": "STARLINK-36066", "group": "last-30-days", "lat": 4.99306768864212, "lon": -28.7011984084152, "alt_km": 443.28650360416486, "timestamp": "2025-12-18T23:35:47.780604+00:00", "meta": {"OBJECT_NAME": "STARLINK-36066", "OBJECT_ID": "2025-270E", "EPOCH": "2025-12-18T13:30:57.278016", "MEAN_MOTION": 15.40728734, "ECCENTRICITY": 0.0001708, "INCLINATION": 42.9983, "RA_OF_ASC_NODE": 159.1001, "ARG_OF_PERICENTER": 275.6443, "MEAN_ANOMALY": 84.4219, "EPHEMERIS_TYPE": 0, "CLASSIFICATION_TYPE": "U", "NORAD_CAT_ID": 66592, "ELEMENT_SET_NO": 999, "REV_AT_EPOCH": 514, "BSTAR": 0.00083144747, "MEAN_MOTION_DOT": 0.00034619, "MEAN_MOTION_DDOT": 0}, "tle": {"line1": "1 66592U 25270E   25352.56316294  .00034619  00000+0  83145-3 0  9993", "line2": "2 66592  42.9983 159.1001 0001708 275.6443  84.4219 15.40728734  5148"}}, "geometry": {"type": "Point", "coordinates": [-28.7011984084152, 4.99306768864212]}}, {"type": "Feature", "properties": {"norad_id": 66593, "name": "STARLINK-36031", "group": "last-30-days", "lat": -42.10736778105781, "lon": 52.38634562300907, "alt_km": 446.4430542076416, "timestamp": "2025-12-18T23:35:47.780796+00:00", "meta": {"OBJECT_NAME": "STARLINK-36031", "OBJECT_ID": "2025-270F", "EPOCH": "2025-12-18T16:00:00.999936", "MEAN_MOTION": 15.40690649, "ECCENTRICITY": 0.00014533, "INCLINATION": 42.9989, "RA_OF_ASC_NODE": 158.2959, "ARG_OF_PERICENTER": 271.9684, "MEAN_ANOMALY": 29.991, "EPHEMERIS_TYPE": 0, "CLASSIFICATION_TYPE": "U", "NORAD_CAT_ID": 66593, "ELEMENT_SET_NO": 999, "REV_AT_EPOCH": 535, "BSTAR": 9.1649509e-05, "MEAN_MOTION_DOT": 3.526e-05, "MEAN_MOTION_DDOT": 0}, "tle": {"line1": "1 66593U 25270F   25352.66667824  .00003526  00000+0  91650-4 0  9997", "line2": "2 66593  42.9989 158.2959 0001453 271.9684  29.9910 15.40690649  5358"}}, "geometry": {"type": "Point", "coordinates": [52.38634562300907, -42.10736778105781]}}, {"type": "Feature", "properties": {"norad_id": 66594, "name": "STARLINK-36032", "group": "last-30-days", "lat": -3.6353419846145996, "lon": 152.3326875174948, "alt_km": 434.52436552871404, "timestamp": "2025-12-18T23:35:47.780812+00:00", "meta": {"OBJECT_NAME": "STARLINK-36032", "OBJECT_ID": "2025-270G", "EPOCH": "2025-12-18T16:00:00.999936", "MEAN_MOTION": 15.45470671, "ECCENTRICITY": 0.00016507, "INCLINATION": 42.9999, "RA_OF_ASC_NODE": 158.0777, "ARG_OF_PERICENTER": 267.3508, "MEAN_ANOMALY": 125.129, "EPHEMERIS_TYPE": 0, "CLASSIFICATION_TYPE": "U", "NORAD_CAT_ID": 66594, "ELEMENT_SET_NO": 999, "REV_AT_EPOCH": 509, "BSTAR": -0.048103863, "MEAN_MOTION_DOT": -0.02093508, "MEAN_MOTION_DDOT": 0}, "tle": {"line1": "1 66594U 25270G   25352.66667824 -.02093508  00000+0 -48104-1 0  9994", "line2": "2 66594  42.9999 158.0777 0001650 267.3508 125.1290 15.45470671  5096"}}, "geometry": {"type": "Point", "coordinates": [152.3326875174948, -3.6353419846145996]}}, {"type": "Feature", "properties": {"norad_id": 66595, "name": "STARLINK-35711", "group": "last-30-days", "lat": 9.409060506639571, "lon": 166.43368894895022, "alt_km": 413.63961476759596, "timestamp": "2025-12-18T23:35:47.780822+00:00", "meta": {"OBJECT_NAME": "STARLINK-35711", "OBJECT_ID": "2025-270H", "EPOCH": "2025-12-18T14:15:41.325120", "MEAN_MOTION": 15.50574943, "ECCENTRICITY": 0.0001458, "INCLINATION": 42.9993, "RA_OF_ASC_NODE": 158.4658, "ARG_OF_PERICENTER": 261.8662, "MEAN_ANOMALY": 98.2033, "EPHEMERIS_TYPE": 0, "CLASSIFICATION_TYPE": "U", "NORAD_CAT_ID": 66595, "ELEMENT_SET_NO": 999, "REV_AT_EPOCH": 536, "BSTAR": 0.001484408, "MEAN_MOTION_DOT": 0.0008771, "MEAN_MOTION_DDOT": 0}, "tle": {"line1": "1 66595U 25270H   25352.59422830  .00087710  00000+0  14844-2 0  9992", "line2": "2 66595  42.9993 158.4658 0001458 261.8662  98.2033 15.50574943  5367"}}, "geometry": {"type": "Point", "coordinates": [166.43368894895022, 9.409060506639571]}}, {"type": "Feature", "properties": {"norad_id": 66596, "name": "STARLINK-35811", "group": "last-30-days", "lat": 21.313504579671935, "lon": -48.01388121966921, "alt_km": 441.2516206388973, "timestamp": "2025-12-18T23:35:47.780835+00:00", "meta": {"OBJECT_NAME": "STARLINK-35811", "OBJECT_ID": "2025-270J", "EPOCH": "2025-12-18T13:37:24.335328", "MEAN_MOTION": 15.40727967, "ECCENTRICITY": 0.00019409, "INCLINATION": 42.9987, "RA_OF_ASC_NODE": 159.1345, "ARG_OF_PERICENTER": 271.7074, "MEAN_ANOMALY": 88.356, "EPHEMERIS_TYPE": 0, "CLASSIFICATION_TYPE": "U", "NORAD_CAT_ID": 66596, "ELEMENT_SET_NO": 999, "REV_AT_EPOCH": 535, "BSTAR": 0.0012500405, "MEAN_MOTION_DOT": 0.00052322, "MEAN_MOTION_DDOT": 0}, "tle": {"line1": "1 66596U 25270J   25352.56764277  .00052322  00000+0  12500-2 0  9992", "line2": "2 66596  42.9987 159.1345 0001940 271.7074  88.3560 15.40727967  5354"}}, "geometry": {"type": "Point", "coordinates": [-48.01388121966921, 21.313504579671935]}}, {"type": "Feature", "properties": {"norad_id": 66597, "name": "STARLINK-35820", "group": "last-30-days", "lat": -11.856854766811722, "lon": -10.360586346361755, "alt_km": 445.2598225834099, "timestamp": "2025-12-18T23:35:47.780846+00:00", "meta": {"OBJECT_NAME": "STARLINK-35820", "OBJECT_ID": "2025-270K", "EPOCH": "2025-12-18T13:24:30.225024", "MEAN_MOTION": 15.40729987, "ECCENTRICITY": 0.00018851, "INCLINATION": 42.9988, "RA_OF_ASC_NODE": 159.0654, "ARG_OF_PERICENTER": 294.5931, "MEAN_ANOMALY": 65.4729, "EPHEMERIS_TYPE": 0, "CLASSIFICATION_TYPE": "U", "NORAD_CAT_ID": 66597, "ELEMENT_SET_NO": 999, "REV_AT_EPOCH": 535, "BSTAR": 0.00083492334, "MEAN_MOTION_DOT": 0.00034768, "MEAN_MOTION_DDOT": 0}, "tle": {"line1": "1 66597U 25270K   25352.55868316  .00034768  00000+0  83492-3 0  9994", "line2": "2 66597  42.9988 159.0654 0001885 294.5931  65.4729 15.40729987  5358"}}, "geometry": {"type": "Point", "coordinates": [-10.360586346361755, -11.856854766811722]}}, {"type": "Feature", "properties": {"norad_id": 66598, "name": "STARLINK-35981", "group": "last-30-days", "lat": -41.31222278988369, "lon": 85.81344740434645, "alt_km": 446.11416122837363, "timestamp": "2025-12-18T23:35:47.780856+00:00", "meta": {"OBJECT_NAME": "STARLINK-35981", "OBJECT_ID": "2025-270L", "EPOCH": "2025-12-18T16:00:00.999936", "MEAN_MOTION": 15.40690339, "ECCENTRICITY": 0.00018927, "INCLINATION": 42.9991, "RA_OF_ASC_NODE": 158.2344, "ARG_OF_PERICENTER": 269.182, "MEAN_ANOMALY": 57.66, "EPHEMERIS_TYPE": 0, "CLASSIFICATION_TYPE": "U", "NORAD_CAT_ID": 66598, "ELEMENT_SET_NO": 999, "REV_AT_EPOCH": 519, "BSTAR": 9.1465155e-05, "MEAN_MOTION_DOT": 3.518e-05, "MEAN_MOTION_DDOT": 0}, "tle": {"line1": "1 66598U 25270L   25352.66667824  .00003518  00000+0  91465-4 0  9997", "line2": "2 66598  42.9991 158.2344 0001892 269.1820  57.6600 15.40690339  5194"}}, "geometry": {"type": "Point", "coordinates": [85.81344740434645, -41.31222278988369]}}, {"type": "Feature", "properties": {"norad_id": 66599, "name": "STARLINK-35930", "group": "last-30-days", "lat": 14.475020696835985, "lon": 172.2551727050578, "alt_km": 412.984461974901, "timestamp": "2025-12-18T23:35:47.780866+00:00", "meta": {"OBJECT_NAME": "STARLINK-35930", "OBJECT_ID": "2025-270M", "EPOCH": "2025-12-18T14:13:43.273344", "MEAN_MOTION": 15.50586883, "ECCENTRICITY": 0.00011875, "INCLINATION": 42.999, "RA_OF_ASC_NODE": 158.4552, "ARG_OF_PERICENTER": 260.945, "MEAN_ANOMALY": 99.1275, "EPHEMERIS_TYPE": 0, "CLASSIFICATION_TYPE": "U", "NORAD_CAT_ID": 66599, "ELEMENT_SET_NO": 999, "REV_AT_EPOCH": 525, "BSTAR": 0.00079042727, "MEAN_MOTION_DOT": 0.00046316, "MEAN_MOTION_DDOT": 0}, "tle": {"line1": "1 66599U 25270M   25352.59286196  .00046316  00000+0  79043-3 0  9999", "line2": "2 66599  42.9990 158.4552 0001187 260.9450  99.1275 15.50586883  5257"}}, "geometry": {"type": "Point", "coordinates": [172.2551727050578, 14.475020696835985]}}]}